GLOBALSTAR M024         
1 25883U 99043A   25007.58859740 -.00000021  00000+0  15385-2 0  9998
2 25883  52.0049  22.9883 0001623 186.1260 328.1036 11.10165740 97023
GLOBALSTAR M027         
1 25884U 99043B   25007.56491132 -.00000058  00000+0  20220-3 0  9999
2 25884  52.0215  96.4727 0021869  93.5244 266.8051 11.04370264123497
GLOBALSTAR M054         
1 25885U 99043C   25007.40886200  .00000011  00000+0  20875-2 0  9990
2 25885  52.0121 251.1056 0004833 266.9722 263.5543 11.39215051100729
GLOBALSTAR M053         
1 25886U 99043D   25007.54448912 -.00000036  00000+0  96296-3 0  9999
2 25886  51.9945 188.9586 0004014 148.2163 281.6257 11.27662423101325
GLOBALSTAR M058         
1 25907U 99049A   25007.80442667 -.00000032  00000+0  70573-3 0  9995
2 25907  51.9908 177.4375 0001422  12.8936 347.1934 11.93191878133601
GLOBALSTAR M050         
1 25908U 99049B   25007.53318219 -.00000136  00000+0 -53943-3 0  9999
2 25908  51.9956 197.8403 0010337  73.8754 333.8167 12.07447790128789
GLOBALSTAR M033         
1 25909U 99049C   25007.56147203 -.00000121  00000+0 -28377-3 0  9993
2 25909  51.9921  80.6882 0012375 291.5162  68.4366 12.20293966516139
GLOBALSTAR M055         
1 25910U 99049D   25007.60662147 -.00000067  00000+0  23238-3 0  9998
2 25910  52.0022  99.1264 0007772 155.2963 204.8262 12.29418504148536
